{"type": "FeatureCollection", "features": [ {"type": "Feature", "properties": {"norad_id": 30860, "name": "FENGYUN 1C DEB", "group": "fengyun-1c-debris", "lat": -70.73850378142, "lon": -132.0864903612067, "alt_km": 821.025763578763, "timestamp": "2025-12-26T21:25:53.289471+00:00", "meta": {"OBJECT_NAME": "FENGYUN 1C DEB", "OBJECT_ID": "1999-025AWW", "EPOCH": "2025-12-25T03:49:30.330048", "MEAN_MOTION": 14.25584296, "ECCENTRICITY": 0.00402123, "INCLINATION": 98.9041, "RA_OF_ASC_NODE": 72.8095, "ARG_OF_PERICENTER": 152.9896, "MEAN_ANOMALY": 207.3388, "EPHEMERIS_TYPE": 0, "CLASSIFICATION_TYPE": "U", "NORAD_CAT_ID": 30860, "ELEMENT_SET_NO": 999, "REV_AT_EPOCH": 96693, "BSTAR": 0.0016146669, "MEAN_MOTION_DOT": 3.811e-05, "MEAN_MOTION_DDOT": 0}, "tle": {"line1": "1 30860U 99025AWW 25359.15937882  .00003811  00000+0  16147-2 0  9992", "line2": "2 30860  98.9041  72.8095 0040212 152.9896 207.3388 14.25584296966930"}}, "geometry": {"type": "Point", "coordinates": [-132.0864903612067, -70.73850378142]}}, {"type": "Feature", "properties": {"norad_id": 30862, "name": "FENGYUN 1C DEB", "group": "fengyun-1c-debris", "lat": -51.81441402351423, "lon": -99.18904009371624, "alt_km": 766.902470058043, "timestamp": "2025-12-26T21:25:53.289481+00:00", "meta": {"OBJECT_NAME": "FENGYUN 1C DEB", "OBJECT_ID": "1999-025AWY", "EPOCH": "2025-12-24T05:23:49.623360", "MEAN_MOTION": 14.4330008, "ECCENTRICITY": 0.00517482, "INCLINATION": 98.9562, "RA_OF_ASC_NODE": 89.5738, "ARG_OF_PERICENTER": 130.3353, "MEAN_ANOMALY": 286.2619, "EPHEMERIS_TYPE": 0, "CLASSIFICATION_TYPE": "U", "NORAD_CAT_ID": 30862, "ELEMENT_SET_NO": 999, "REV_AT_EPOCH": 96885, "BSTAR": 0.0034051786, "MEAN_MOTION_DOT": 0.0001163, "MEAN_MOTION_DDOT": 0}, "tle": {"line1": "1 30862U 99025AWY 25358.22487990  .00011630  00000+0  34052-2 0  9994", "line2": "2 30862  98.9562  89.5738 0051748 130.3353 286.2619 14.43300080968856"}}, "geometry": {"type": "Point", "coordinates": [-99.18904009371624, -51.81441402351423]}}, {"type": "Feature", "properties": {"norad_id": 30863, "name": "FENGYUN 1C DEB", "group": "fengyun-1c-debris", "lat": -79.56880718548184, "lon": -110.63148876380919, "alt_km": 1071.5189704936174, "timestamp": "2025-12-26T21:25:53.289491+00:00", "meta": {"OBJECT_NAME": "FENGYUN 1C DEB", "OBJECT_ID": "1999-025AWZ", "EPOCH": "2025-12-21T07:26:52.161216", "MEAN_MOTION": 12.40539027, "ECCENTRICITY": 0.0877249, "INCLINATION": 99.1205, "RA_OF_ASC_NODE": 184.3542, "ARG_OF_PERICENTER": 232.3747, "MEAN_ANOMALY": 314.6544, "EPHEMERIS_TYPE": 0, "CLASSIFICATION_TYPE": "U", "NORAD_CAT_ID": 30863, "ELEMENT_SET_NO": 999, "REV_AT_EPOCH": 59846, "BSTAR": 0.0027378, "MEAN_MOTION_DOT": 1.406e-05, "MEAN_MOTION_DDOT": 0}, "tle": {"line1": "1 30863U 99025AWZ 25355.31032594  .00001406  00000+0  27378-2 0  9991", "line2": "2 30863  99.1205 184.3542 0877249 232.3747 314.6544 12.40539027598462"}}, "geometry": {"type": "Point", "coordinates": [-110.63148876380919, -79.56880718548184]}}, {"type": "Feature", "properties": {"norad_id": 30867, "name": "FENGYUN 1C DEB", "group": "fengyun-1c-debris", "lat": 80.62689148527748, "lon": -150.64839500389022, "alt_km": 815.0571690297875, "timestamp": "2025-12-26T21:25:53.289518+00:00", "meta": {"OBJECT_NAME": "FENGYUN 1C DEB", "OBJECT_ID": "1999-025AXD", "EPOCH": "2025-12-26T11:12:10.399392", "MEAN_MOTION": 14.28151494, "ECCENTRICITY": 0.00532752, "INCLINATION": 97.8766, "RA_OF_ASC_NODE": 265.9653, "ARG_OF_PERICENTER": 315.9723, "MEAN_ANOMALY": 98.5555, "EPHEMERIS_TYPE": 0, "CLASSIFICATION_TYPE": "U", "NORAD_CAT_ID": 30867, "ELEMENT_SET_NO": 999, "REV_AT_EPOCH": 96733, "BSTAR": 0.0024548669, "MEAN_MOTION_DOT": 6.167e-05, "MEAN_MOTION_DDOT": 0}, "tle": {"line1": "1 30867U 99025AXD 25360.46678703  .00006167  00000+0  24549-2 0  9991", "line2": "2 30867  97.8766 265.9653 0053275 315.9723  98.5555 14.28151494967331"}}, "geometry": {"type": "Point", "coordinates": [-150.64839500389022, 80.62689148527748]}}, {"type": "Feature", "properties": {"norad_id": 30868, "name": "FENGYUN 1C DEB", "group": "fengyun-1c-debris", "lat": 42.165660817766195, "lon": 65.37357942674731, "alt_km": 771.0339471439993, "timestamp": "2025-12-26T21:25:53.289529+00:00", "meta": {"OBJECT_NAME": "FENGYUN 1C DEB", "OBJECT_ID": "1999-025AXE", "EPOCH": "2025-12-25T03:00:10.115712", "MEAN_MOTION": 14.11126234, "ECCENTRICITY": 0.01358087, "INCLINATION": 98.2628, "RA_OF_ASC_NODE": 236.1837, "ARG_OF_PERICENTER": 177.1984, "MEAN_ANOMALY": 345.1428, "EPHEMERIS_TYPE": 0, "CLASSIFICATION_TYPE": "U", "NORAD_CAT_ID": 30868, "ELEMENT_SET_NO": 999, "REV_AT_EPOCH": 96885, "BSTAR": 0.00015734601, "MEAN_MOTION_DOT": 2.7e-06, "MEAN_MOTION_DDOT": 0}, "tle": {"line1": "1 30868U 99025AXE 25359.12511708  .00000270  00000+0  15735-3 0  9991", "line2": "2 30868  98.2628 236.1837 0135808 177.1984 345.1428 14.11126234968852"}}, "geometry": {"type": "Point", "coordinates": [65.37357942674731, 42.165660817766195]}}, {"type": "Feature", "properties": {"norad_id": 30872, "name": "FENGYUN 1C DEB", "group": "fengyun-1c-debris", "lat": -50.022541464616765, "lon": 65.41313900356015, "alt_km": 744.0819607069434, "timestamp": "2025-12-26T21:25:53.289540+00:00", "meta": {"OBJECT_NAME": "FENGYUN 1C DEB", "OBJECT_ID": "1999-025AXJ", "EPOCH": "2025-12-24T16:52:07.429728", "MEAN_MOTION": 14.39483316, "ECCENTRICITY": 0.00403873, "INCLINATION": 99.1918, "RA_OF_ASC_NODE": 51.9309, "ARG_OF_PERICENTER": 353.0106, "MEAN_ANOMALY": 133.3238, "EPHEMERIS_TYPE": 0, "CLASSIFICATION_TYPE": "U", "NORAD_CAT_ID": 30872, "ELEMENT_SET_NO": 999, "REV_AT_EPOCH": 97908, "BSTAR": 0.00084489054, "MEAN_MOTION_DOT": 2.609e-05, "MEAN_MOTION_DDOT": 0}, "tle": {"line1": "1 30872U 99025AXJ 25358.70286377  .00002609  00000+0  84489-3 0  9990", "line2": "2 30872  99.1918  51.9309 0040387 353.0106 133.3238 14.39483316979084"}}, "geometry": {"type": "Point", "coordinates": [65.41313900356015, -50.022541464616765]}}, {"type": "Feature", "properties": {"norad_id": 30873, "name": "FENGYUN 1C DEB", "group": "fengyun-1c-debris", "lat": -75.71637569412783, "lon": 37.33519937503678, "alt_km": 770.8286427515532, "timestamp": "2025-12-26T21:25:53.289550+00:00", "meta": {"OBJECT_NAME": "FENGYUN 1C DEB", "OBJECT_ID": "1999-025AXK", "EPOCH": "2025-12-25T23:48:05.453856", "MEAN_MOTION": 14.19149716, "ECCENTRICITY": 0.01077411, "INCLINATION": 98.612, "RA_OF_ASC_NODE": 359.9287, "ARG_OF_PERICENTER": 250.1453, "MEAN_ANOMALY": 108.8085, "EPHEMERIS_TYPE": 0, "CLASSIFICATION_TYPE": "U", "NORAD_CAT_ID": 30873, "ELEMENT_SET_NO": 999, "REV_AT_EPOCH": 97380, "BSTAR": 0.00018718205, "MEAN_MOTION_DOT": 3.71e-06, "MEAN_MOTION_DDOT": 0}, "tle": {"line1": "1 30873U 99025AXK 25359.99172979  .00000371  00000+0  18718-3 0  9991", "line2": "2 30873  98.6120 359.9287 0107741 250.1453 108.8085 14.19149716973802"}}, "geometry": {"type": "Point", "coordinates": [37.33519937503678, -75.71637569412783]}}, {"type": "Feature", "properties": {"norad_id": 30874, "name": "FENGYUN 1C DEB", "group": "fengyun-1c-debris", "lat": -42.34428827506841, "lon": -156.89997616158098, "alt_km": 854.6513506454221, "timestamp": "2025-12-26T21:25:53.289560+00:00", "meta": {"OBJECT_NAME": "FENGYUN 1C DEB", "OBJECT_ID": "1999-025AXL", "EPOCH": "2025-12-26T08:37:08.788800", "MEAN_MOTION": 14.19675194, "ECCENTRICITY": 0.00413407, "INCLINATION": 98.4892, "RA_OF_ASC_NODE": 30.4111, "ARG_OF_PERICENTER": 1.0914, "MEAN_ANOMALY": 15.2054, "EPHEMERIS_TYPE": 0, "CLASSIFICATION_TYPE": "U", "NORAD_CAT_ID": 30874, "ELEMENT_SET_NO": 999, "REV_AT_EPOCH": 97214, "BSTAR": 0.00044933202, "MEAN_MOTION_DOT": 9.16e-06, "MEAN_MOTION_DDOT": 0}, "tle": {"line1": "1 30874U 99025AXL 25360.35912950  .00000916  00000+0  44933-3 0  9998", "line2": "2 30874  98.4892  30.4111 0041340   1.0914  15.2054 14.19675194972148"}}, "geometry": {"type": "Point", "coordinates": [-156.89997616158098, -42.34428827506841]}}, {"type": "Feature", "properties": {"norad_id": 30876, "name": "FENGYUN 1C DEB", "group": "fengyun-1c-debris", "lat": -33.98259596028734, "lon": -8.564167694584045, "alt_km": 900.5151803318149, "timestamp": "2025-12-26T21:25:53.289571+00:00", "meta": {"OBJECT_NAME": "FENGYUN 1C DEB", "OBJECT_ID": "1999-025AXN", "EPOCH": "2025-12-26T10:19:24.891744", "MEAN_MOTION": 13.99187087, "ECCENTRICITY": 0.00663579, "INCLINATION": 98.8129, "RA_OF_ASC_NODE": 344.9881, "ARG_OF_PERICENTER": 239.1892, "MEAN_ANOMALY": 275.6884, "EPHEMERIS_TYPE": 0, "CLASSIFICATION_TYPE": "U", "NORAD_CAT_ID": 30876, "ELEMENT_SET_NO": 999, "REV_AT_EPOCH": 95901, "BSTAR": 0.00045201793, "MEAN_MOTION_DOT": 6.25e-06, "MEAN_MOTION_DDOT": 0}, "tle": {"line1": "1 30876U 99025AXN 25360.43014921  .00000625  00000+0  45202-3 0  9997", "line2": "2 30876  98.8129 344.9881 0066357 239.1892 275.6884 13.99187087959018"}}, "geometry": {"type": "Point", "coordinates": [-8.564167694584045, -33.98259596028734]}}, {"type": "Feature", "properties": {"norad_id": 30878, "name": "FENGYUN 1C DEB", "group": "fengyun-1c-debris", "lat": 9.177974274801205, "lon": 0.5564789779562698, "alt_km": 866.9230823854577, "timestamp": "2025-12-26T21:25:53.289581+00:00", "meta": {"OBJECT_NAME": "FENGYUN 1C DEB", "OBJECT_ID": "1999-025AXQ", "EPOCH": "2025-12-25T12:05:31.862400", "MEAN_MOTION": 14.11912076, "ECCENTRICITY": 0.0039884, "INCLINATION": 98.7208, "RA_OF_ASC_NODE": 0.6269, "ARG_OF_PERICENTER": 257.5382, "MEAN_ANOMALY": 254.5694, "EPHEMERIS_TYPE": 0, "CLASSIFICATION_TYPE": "U", "NORAD_CAT_ID": 30878, "ELEMENT_SET_NO": 999, "REV_AT_EPOCH": 96547, "BSTAR": 0.0005272, "MEAN_MOTION_DOT": 9.27e-06, "MEAN_MOTION_DDOT": 0}, "tle": {"line1": "1 30878U 99025AXQ 25359.50384100  .00000927  00000+0  52720-3 0  9992", "line2": "2 30878  98.7208   0.6269 0039884 257.5382 254.5694 14.11912076965477"}}, "geometry": {"type": "Point", "coordinates": [0.5564789779562698, 9.177974274801205]}}]}